     3.04           N: GNSS NAV DATA    M: Mixed            RINEX VERSION / TYPE
HGO                 HITARGET            20250511 084944 UTC PGM / RUN BY / DATE 
GPSA   3.2596D-08  1.4901D-08 -1.7881D-07 -5.9605D-08       IONOSPHERIC CORR    
GPSB   1.3722D+05  1.6384D+04 -3.2768D+05  3.2768D+05       IONOSPHERIC CORR    
    18                                                      LEAP SECONDS        
                                                            END OF HEADER       
R24 2025 04 10 07 45 00-9.988620877266D-05-1.818989403546D-12 3.837000000000D+05
    -2.499153662109D+04-4.300308227539D-01-1.862645149231D-09 0.000000000000D+00
    -4.128208007813D+03 7.043552398682D-02-3.725290298462D-09 2.000000000000D+00
     2.964417480469D+03-3.542246818542D+00 0.000000000000D+00 0.000000000000D+00
R16 2025 04 10 07 45 00 3.486312925816D-05 0.000000000000D+00 3.840000000000D+05
     1.093410156250D+04 4.881572723389D-01 3.725290298462D-09 0.000000000000D+00
     2.162616894531D+04 9.805746078491D-01 2.793967723846D-09-1.000000000000D+00
     7.912245117188D+03-3.361584663391D+00 0.000000000000D+00 0.000000000000D+00
R17 2025 04 10 07 45 00 1.816563308239D-04 2.728484105319D-12 3.840000000000D+05
    -1.670155078125D+04-2.513994216919D+00 0.000000000000D+00 0.000000000000D+00
     4.998750976563D+03-4.470529556274D-01-1.862645149231D-09 4.000000000000D+00
     1.860747412109D+04-2.140018463135D+00-1.862645149231D-09 0.000000000000D+00
R18 2025 04 10 07 45 00 1.959819346666D-04 1.818989403546D-12 3.840000000000D+05
    -5.052343750000D+02-3.078363418579D+00 9.313225746155D-10 0.000000000000D+00
     1.071534912109D+04-7.600812911987D-01 0.000000000000D+00-3.000000000000D+00
     2.315015087891D+04 2.895231246948D-01-1.862645149231D-09 0.000000000000D+00
R 2 2025 04 10 07 45 00-3.469735383987D-05 9.094947017729D-13 3.840000000000D+05
    -1.693237353516D+04 1.794918060303D+00 0.000000000000D+00 0.000000000000D+00
     5.711050292969D+03-1.731669425964D+00-1.862645149231D-09-4.000000000000D+00
     1.828229833984D+04 2.203770637512D+00-1.862645149231D-09 0.000000000000D+00
R 1 2025 04 10 07 45 00 1.210365444422D-04 9.094947017729D-13 3.840000000000D+05
    -6.562981933594D+03 2.035690307617D+00-1.862645149231D-09 0.000000000000D+00
    -8.983790039063D+03-2.393999099731D+00-9.313225746155D-10 1.000000000000D+00
     2.296118408203D+04-3.530893325806D-01-2.793967723846D-09 0.000000000000D+00
R19 2025 04 10 07 45 00-4.718545824289D-05-9.094947017729D-13 3.840000000000D+05
     1.421099072266D+04-2.261476516724D+00 1.862645149231D-09 0.000000000000D+00
     1.204427099609D+04-7.892808914185D-01 2.793967723846D-09 3.000000000000D+00
     1.742034863281D+04 2.389773368835D+00-1.862645149231D-09 0.000000000000D+00
C04 2025 04 10 07 00 00 1.770695671439D-04-4.249045559845D-12 0.000000000000D+00
     1.000000000000D+00-4.054531250000D+02 2.590822203858D-09-3.028708452538D+00
    -1.334678381681D-05 5.766114918515D-04-2.714060246944D-05 6.493473281860D+03
     3.708000000000D+05-2.235174179077D-08-1.538160657903D+00-6.053596735001D-09
     1.195154360805D-01 8.400312500000D+02 2.980407824669D+00-1.767216468802D-09
    -1.464346710204D-11 0.000000000000D+00 1.005000000000D+03 0.000000000000D+00
     2.000000000000D+00 0.000000000000D+00 5.500000010983D-09 0.000000000000D+00
     0.000000000000D+00 0.000000000000D+00                                      
C03 2025 04 10 07 00 00 8.185377810150D-04 1.519673276107D-11 0.000000000000D+00
     1.000000000000D+00-4.152812500000D+02 2.670111220850D-09 1.566176162324D-01
    -1.382967457175D-05 1.062785508111D-03-2.053612843156D-05 6.493515394211D+03
     3.708000000000D+05-5.820766091347D-08-1.452054285764D+00-5.122274160385D-09
     1.054507690421D-01 6.312343750000D+02-1.154365278919D+00-1.572565503665D-09
     3.464430021702D-11 0.000000000000D+00 1.005000000000D+03 0.000000000000D+00
     2.000000000000D+00 0.000000000000D+00 2.299999968258D-09 0.000000000000D+00
     0.000000000000D+00 0.000000000000D+00                                      
C02 2025 04 10 07 00 00 7.973518222570D-06-2.673150589771D-11 0.000000000000D+00
     1.000000000000D+00-2.914062500000D+02 3.531218517997D-09 4.024412003199D-02
    -9.713694453239D-06 1.055158325471D-03-2.271076664329D-05 6.493466281891D+03
     3.708000000000D+05 2.561137080193D-08-1.547634303261D+00 2.933666110039D-08
     1.341013613114D-01 6.942500000000D+02-1.405497839529D+00-2.491175196018D-09
    -2.357241045694D-11 0.000000000000D+00 1.005000000000D+03 0.000000000000D+00
     2.000000000000D+00 0.000000000000D+00 1.700000029636D-09 0.000000000000D+00
     0.000000000000D+00 0.000000000000D+00                                      
C30 2025 04 10 07 00 00 1.508200075477D-04 9.438672066153D-12 0.000000000000D+00
     1.000000000000D+00-9.421875000000D+01 4.019095982909D-09 1.558415792993D+00
    -4.663132131100D-06 6.134056020528D-04 7.156748324633D-06 5.282649696350D+03
     3.708000000000D+05 7.404014468193D-08 2.104342166572D+00-6.286427378654D-08
     9.522545384581D-01 2.145312500000D+02 7.397530039448D-01-7.046007780220D-09
    -5.414511250413D-10 0.000000000000D+00 1.005000000000D+03 0.000000000000D+00
     2.000000000000D+00 0.000000000000D+00-9.499999897855D-09 0.000000000000D+00
     0.000000000000D+00 1.000000000000D+00                                      
C29 2025 04 10 07 00 00 4.267032491043D-04 4.976463685580D-12 0.000000000000D+00
     1.000000000000D+00-8.843750000000D+01 3.949807382474D-09 1.700413700827D-01
    -4.275701940060D-06 2.705614315346D-04 6.904359906912D-06 5.282612318039D+03
     3.708000000000D+05-1.071020960808D-07 2.103862948257D+00-7.776543498039D-08
     9.523000103407D-01 2.199218750000D+02 1.324837370120D+00-6.932074463012D-09
    -4.671623163285D-10 0.000000000000D+00 1.005000000000D+03 0.000000000000D+00
     2.000000000000D+00 0.000000000000D+00 2.999999970665D-10 0.000000000000D+00
     0.000000000000D+00 1.000000000000D+00                                      
C20 2025 04 10 07 00 00-8.456766372547D-04 1.904254531837D-12 0.000000000000D+00
     1.000000000000D+00 3.412500000000D+01 3.934806757638D-09 4.211072069997D-01
     1.712236553431D-06 9.248316055164D-04 3.327149897814D-06 5.282625633240D+03
     3.708000000000D+05-8.847564458847D-09-2.044142076734D+00 1.071020960808D-08
     9.824894241939D-01 3.067812500000D+02-3.485855594392D-01-7.016006530548D-09
     2.939408152434D-10 0.000000000000D+00 1.005000000000D+03 0.000000000000D+00
     2.000000000000D+00 0.000000000000D+00 1.280000017090D-08 0.000000000000D+00
     0.000000000000D+00 1.000000000000D+00                                      
C13 2025 04 10 07 00 00 1.708662603050D-05-8.607337065314D-12 0.000000000000D+00
     1.000000000000D+00 3.382187500000D+02 7.436024025962D-10 2.200279008807D+00
     1.159310340881D-05 5.142791313119D-03 1.601129770279D-05 6.493742698669D+03
     3.708000000000D+05-1.937150955200D-07-2.656291697188D+00-9.313225746155D-08
     1.040833555215D+00-2.288906250000D+02-2.286423745972D+00-1.822575917603D-09
     9.689689328740D-10 0.000000000000D+00 1.005000000000D+03 0.000000000000D+00
     2.000000000000D+00 0.000000000000D+00-9.499999897855D-09 0.000000000000D+00
     0.000000000000D+00 0.000000000000D+00                                      
C19 2025 04 10 07 00 00-9.644232923165D-04-1.465494392505D-12 0.000000000000D+00
     1.000000000000D+00 3.375000000000D+01 3.870875523217D-09 1.082826917116D-01
     1.687090843916D-06 1.086351228878D-03 3.320630639791D-06 5.282621725082D+03
     3.708000000000D+05-4.656612873077D-10-2.044771097861D+00 2.328306436539D-09
     9.825034506524D-01 3.039375000000D+02-7.642374220362D-01-6.993505593294D-09
     3.096557555480D-10 0.000000000000D+00 1.005000000000D+03 0.000000000000D+00
     2.000000000000D+00 0.000000000000D+00 1.029999996405D-08 0.000000000000D+00
     0.000000000000D+00 1.000000000000D+00                                      
E27 2025 04 10 06 20 00-6.304078851826D-04-1.021760454023D-11 0.000000000000D+00
     1.060000000000D+02 1.107500000000D+02 3.245849488374D-09 1.673494276074D+00
     4.937872290611D-06 1.798433950171D-04 6.375834345818D-06 5.440607059479D+03
     3.684000000000D+05-4.284083843231D-08 6.795533544449D-01-3.725290298462D-09
     9.639723937766D-01 2.044687500000D+02 6.875483714466D-01-5.736310368923D-09
     3.353711124101D-10 0.000000000000D+00 2.361000000000D+03                   
     1.070000000000D+02 0.000000000000D+00-1.396983861923D-09-1.164153218269D-09
     0.000000000000D+00                                                         
E05 2025 04 10 07 00 00 4.842672089580D-03 3.140598892060D-12 0.000000000000D+00
     1.100000000000D+02-8.684375000000D+01 3.594792594684D-09 1.729478256488D+00
    -4.187226295471D-06 3.132940037176D-04 3.650784492493D-06 5.440605880737D+03
     3.708000000000D+05 6.891787052155D-08-1.420574443576D+00 3.166496753693D-08
     9.635691433339D-01 2.629687500000D+02-9.030074889036D-01-6.028465395496D-09
    -3.196561721055D-10 0.000000000000D+00 2.361000000000D+03                   
     1.070000000000D+02 0.000000000000D+00 1.629814505577D-09 2.095475792885D-09
     0.000000000000D+00                                                         
E21 2025 04 10 07 00 00-6.574842263944D-04-2.472688720445D-12 0.000000000000D+00
     1.100000000000D+02 1.111562500000D+02 3.244420857437D-09 2.462357641822D-01
     5.096197128296D-06 1.584055135027D-04 6.219372153282D-06 5.440609861374D+03
     3.708000000000D+05-6.891787052155D-08 6.795690705738D-01 1.117587089539D-08
     9.640014429409D-01 2.087500000000D+02 1.614220605442D+00-5.740596261734D-09
     3.825159333240D-10 0.000000000000D+00 2.361000000000D+03                   
     1.070000000000D+02 0.000000000000D+00-6.984919309616D-10-6.984919309616D-10
     0.000000000000D+00                                                         
